start=new Date('2022-05-27T00:00:00.000Z').valueOf();
sats=[{"OBJECT_ID":"2022-016AT","TIME_SYSTEM":"UTC","ELEMENT_SET_NO":"999","MEAN_ELEMENT_THEORY":"SGP4","MEAN_MOTION_DOT":"-0.00618282","SITE":"AFETR","SEMIMAJOR_AXIS":"6852.828","GP_ID":"204628110","PERIAPSIS":"473.789","COUNTRY_CODE":"US","FILE":"3466271","MEAN_MOTION_DDOT":"0.0000000000000","BSTAR":"-0.02224900000000","ECCENTRICITY":"0.00013190","APOAPSIS":"475.596","NORAD_CAT_ID":"51755","LAUNCH_DATE":"2022-02-21","REV_AT_EPOCH":"130","CLASSIFICATION_TYPE":"U","INCLINATION":"53.2171","TLE_LINE2":"2 51755  53.2171  37.7111 0001319  80.4265   6.2512 15.30375679  1309","MEAN_MOTION":"15.30375679","EPOCH":"2022-05-26T22:00:00.999936","DECAY_DATE":null,"RA_OF_ASC_NODE":"37.7111","MEAN_ANOMALY":"6.2512","OBJECT_TYPE":"PAYLOAD","EPHEMERIS_TYPE":"0","OBJECT_NAME":"STARLINK-3460","CENTER_NAME":"EARTH","PERIOD":"94.095","TLE_LINE1":"1 51755U 22016AT  22146.91667824 -.00618282  00000-0 -22249-1 0  9991","RCS_SIZE":"LARGE","ARG_OF_PERICENTER":"80.4265","REF_FRAME":"TEME"},{"TLE_LINE1":"1 51756U 22016AU  22146.88774728 -.00289131  00000-0 -92612-2 0  9999","ARG_OF_PERICENTER":"114.8752","RCS_SIZE":"MEDIUM","REF_FRAME":"TEME","PERIOD":"93.929","CENTER_NAME":"EARTH","OBJECT_NAME":"STARLINK-3513","OBJECT_TYPE":"PAYLOAD","EPHEMERIS_TYPE":"0","RA_OF_ASC_NODE":"37.8862","MEAN_ANOMALY":"245.2523","EPOCH":"2022-05-26T21:18:21.364992","DECAY_DATE":null,"MEAN_MOTION":"15.33066301","TLE_LINE2":"2 51756  53.2185  37.8862 0002620 114.8752 245.2523 15.33066301 14930","CLASSIFICATION_TYPE":"U","INCLINATION":"53.2185","REV_AT_EPOCH":"1493","LAUNCH_DATE":"2022-02-21","NORAD_CAT_ID":"51756","ECCENTRICITY":"0.00026200","APOAPSIS":"468.465","MEAN_MOTION_DDOT":"0.0000000000000","BSTAR":"-0.00926120000000","PERIAPSIS":"464.879","COUNTRY_CODE":"US","FILE":"3466271","SEMIMAJOR_AXIS":"6844.807","GP_ID":"204628360","MEAN_MOTION_DOT":"-0.00289131","SITE":"AFETR","MEAN_ELEMENT_THEORY":"SGP4","TIME_SYSTEM":"UTC","ELEMENT_SET_NO":"999","OBJECT_ID":"2022-016AU"},{"REV_AT_EPOCH":"1493","LAUNCH_DATE":"2022-02-21","CLASSIFICATION_TYPE":"U","INCLINATION":"53.2163","MEAN_MOTION":"15.33140869","TLE_LINE2":"2 51757  53.2163  37.9013 0000422 122.1390 237.9654 15.33140869 14939","EPOCH":"2022-05-26T21:15:52.531488","DECAY_DATE":null,"OBJECT_TYPE":"PAYLOAD","EPHEMERIS_TYPE":"0","RA_OF_ASC_NODE":"37.9013","MEAN_ANOMALY":"237.9654","OBJECT_NAME":"STARLINK-3459","PERIOD":"93.925","CENTER_NAME":"EARTH","RCS_SIZE":"LARGE","TLE_LINE1":"1 51757U 22016AV  22146.88602467 -.00329170  00000-0 -10579-1 0  9999","ARG_OF_PERICENTER":"122.1390","REF_FRAME":"TEME","OBJECT_ID":"2022-016AV","MEAN_ELEMENT_THEORY":"SGP4","TIME_SYSTEM":"UTC","ELEMENT_SET_NO":"999","SEMIMAJOR_AXIS":"6844.585","GP_ID":"204629611","MEAN_MOTION_DOT":"-0.00329170","SITE":"AFETR","PERIAPSIS":"466.161","COUNTRY_CODE":"US","FILE":"3466271","MEAN_MOTION_DDOT":"0.0000000000000","BSTAR":"-0.01057900000000","ECCENTRICITY":"0.00004220","APOAPSIS":"466.739","NORAD_CAT_ID":"51757"},{"MEAN_MOTION_DDOT":"0.0000000000000","BSTAR":"-0.02075600000000","COUNTRY_CODE":"US","PERIAPSIS":"467.827","FILE":"3466271","NORAD_CAT_ID":"51758","APOAPSIS":"469.777","ECCENTRICITY":"0.00014240","TIME_SYSTEM":"UTC","ELEMENT_SET_NO":"999","MEAN_ELEMENT_THEORY":"SGP4","OBJECT_ID":"2022-016AW","MEAN_MOTION_DOT":"-0.00613946","SITE":"AFETR","GP_ID":"204629862","SEMIMAJOR_AXIS":"6846.937","OBJECT_NAME":"STARLINK-3458","RA_OF_ASC_NODE":"37.7781","MEAN_ANOMALY":"117.1673","OBJECT_TYPE":"PAYLOAD","EPHEMERIS_TYPE":"0","TLE_LINE1":"1 51758U 22016AW  22146.91667824 -.00613946  00000-0 -20756-1 0  9997","RCS_SIZE":"LARGE","REF_FRAME":"TEME","ARG_OF_PERICENTER":"58.9981","CENTER_NAME":"EARTH","PERIOD":"93.973","CLASSIFICATION_TYPE":"U","INCLINATION":"53.2180","LAUNCH_DATE":"2022-02-21","REV_AT_EPOCH":"130","EPOCH":"2022-05-26T22:00:00.999936","DECAY_DATE":null,"TLE_LINE2":"2 51758  53.2180  37.7781 0001424  58.9981 117.1673 15.32350958  1302","MEAN_MOTION":"15.32350958"},{"TIME_SYSTEM":"UTC","ELEMENT_SET_NO":"999","MEAN_ELEMENT_THEORY":"SGP4","OBJECT_ID":"2022-016AX","MEAN_MOTION_DOT":"-0.00274236","SITE":"AFETR","SEMIMAJOR_AXIS":"6843.672","GP_ID":"204628610","MEAN_MOTION_DDOT":"0.0000000000000","BSTAR":"-0.00866130000000","COUNTRY_CODE":"US","PERIAPSIS":"463.836","FILE":"3466271","NORAD_CAT_ID":"51759","APOAPSIS":"467.238","ECCENTRICITY":"0.00024850","INCLINATION":"53.2190","CLASSIFICATION_TYPE":"U","LAUNCH_DATE":"2022-02-21","REV_AT_EPOCH":"1493","EPOCH":"2022-05-26T21:13:31.967328","DECAY_DATE":null,"TLE_LINE2":"2 51759  53.2190  37.9124 0002485 109.8828 250.2443 15.33447731 14935","MEAN_MOTION":"15.33447731","OBJECT_NAME":"STARLINK-3456","RA_OF_ASC_NODE":"37.9124","MEAN_ANOMALY":"250.2443","OBJECT_TYPE":"PAYLOAD","EPHEMERIS_TYPE":"0","TLE_LINE1":"1 51759U 22016AX  22146.88439777 -.00274236  00000-0 -86613-2 0  9998","RCS_SIZE":"LARGE","ARG_OF_PERICENTER":"109.8828","REF_FRAME":"TEME","CENTER_NAME":"EARTH","PERIOD":"93.906"},{"BSTAR":"-0.00099446000000","MEAN_MOTION_DDOT":"0.0000000000000","FILE":"3466056","PERIAPSIS":"538.502","COUNTRY_CODE":"US","NORAD_CAT_ID":"51768","ECCENTRICITY":"0.00017400","APOAPSIS":"540.909","ELEMENT_SET_NO":"999","TIME_SYSTEM":"UTC","MEAN_ELEMENT_THEORY":"SGP4","OBJECT_ID":"2022-017A","SITE":"AFWTR","MEAN_MOTION_DOT":"-0.00016086","GP_ID":"204603066","SEMIMAJOR_AXIS":"6917.840","OBJECT_NAME":"STARLINK-3622","MEAN_ANOMALY":"262.7278","RA_OF_ASC_NODE":"66.6338","EPHEMERIS_TYPE":"0","OBJECT_TYPE":"PAYLOAD","ARG_OF_PERICENTER":"48.8696","TLE_LINE1":"1 51768U 22017A   22146.91667824 -.00016086  00000-0 -99446-3 0  9995","RCS_SIZE":"LARGE","REF_FRAME":"TEME","CENTER_NAME":"EARTH","PERIOD":"95.437","CLASSIFICATION_TYPE":"U","INCLINATION":"53.2120","LAUNCH_DATE":"2022-02-25","REV_AT_EPOCH":"1530","DECAY_DATE":null,"EPOCH":"2022-05-26T22:00:00.999936","TLE_LINE2":"2 51768  53.2120  66.6338 0001740  48.8696 262.7278 15.08853136 15300","MEAN_MOTION":"15.08853136"},{"ECCENTRICITY":"0.00016130","APOAPSIS":"540.867","NORAD_CAT_ID":"51769","PERIAPSIS":"538.636","COUNTRY_CODE":"US","FILE":"3466271","MEAN_MOTION_DDOT":"0.0000000000000","BSTAR":"-0.00010851000000","MEAN_MOTION_DOT":"-0.00002014","SITE":"AFWTR","SEMIMAJOR_AXIS":"6917.886","GP_ID":"204629112","OBJECT_ID":"2022-017B","TIME_SYSTEM":"UTC","ELEMENT_SET_NO":"999","MEAN_ELEMENT_THEORY":"SGP4","CENTER_NAME":"EARTH","PERIOD":"95.438","TLE_LINE1":"1 51769U 22017B   22146.91667824 -.00002014  00000-0 -10851-3 0  9995","RCS_SIZE":"LARGE","ARG_OF_PERICENTER":"52.7503","REF_FRAME":"TEME","RA_OF_ASC_NODE":"66.6231","MEAN_ANOMALY":"298.8449","OBJECT_TYPE":"PAYLOAD","EPHEMERIS_TYPE":"0","OBJECT_NAME":"STARLINK-3621","TLE_LINE2":"2 51769  53.2175  66.6231 0001613  52.7503 298.8449 15.08838045  1300","MEAN_MOTION":"15.08838045","EPOCH":"2022-05-26T22:00:00.999936","DECAY_DATE":null,"LAUNCH_DATE":"2022-02-25","REV_AT_EPOCH":"130","CLASSIFICATION_TYPE":"U","INCLINATION":"53.2175"},{"CLASSIFICATION_TYPE":"U","INCLINATION":"53.2110","REV_AT_EPOCH":"1530","LAUNCH_DATE":"2022-02-25","DECAY_DATE":null,"EPOCH":"2022-05-26T22:00:00.999936","MEAN_MOTION":"15.08874761","TLE_LINE2":"2 51770  53.2110  66.6312 0002013  53.6297 277.9787 15.08874761 15309","OBJECT_NAME":"STARLINK-3612","EPHEMERIS_TYPE":"0","OBJECT_TYPE":"PAYLOAD","MEAN_ANOMALY":"277.9787","RA_OF_ASC_NODE":"66.6312","ARG_OF_PERICENTER":"53.6297","TLE_LINE1":"1 51770U 22017C   22146.91667824 -.00006604  00000-0 -39682-3 0  9999","RCS_SIZE":"LARGE","REF_FRAME":"TEME","PERIOD":"95.435","CENTER_NAME":"EARTH","MEAN_ELEMENT_THEORY":"SGP4","ELEMENT_SET_NO":"999","TIME_SYSTEM":"UTC","OBJECT_ID":"2022-017C","SEMIMAJOR_AXIS":"6917.774","GP_ID":"204603205","SITE":"AFWTR","MEAN_MOTION_DOT":"-0.00006604","BSTAR":"-0.00039682000000","MEAN_MOTION_DDOT":"0.0000000000000","FILE":"3466057","COUNTRY_CODE":"US","PERIAPSIS":"538.247","NORAD_CAT_ID":"51770","ECCENTRICITY":"0.00020130","APOAPSIS":"541.032"},{"APOAPSIS":"540.863","ECCENTRICITY":"0.00016080","NORAD_CAT_ID":"51771","PERIAPSIS":"538.638","COUNTRY_CODE":"US","FILE":"3466057","MEAN_MOTION_DDOT":"0.0000000000000","BSTAR":"-0.00013339000000","GP_ID":"204603074","SEMIMAJOR_AXIS":"6917.886","MEAN_MOTION_DOT":"-0.00002410","SITE":"AFWTR","OBJECT_ID":"2022-017D","MEAN_ELEMENT_THEORY":"SGP4","TIME_SYSTEM":"UTC","ELEMENT_SET_NO":"999","PERIOD":"95.438","CENTER_NAME":"EARTH","TLE_LINE1":"1 51771U 22017D   22146.91667824 -.00002410  00000-0 -13339-3 0  9992","ARG_OF_PERICENTER":"52.0985","RCS_SIZE":"LARGE","REF_FRAME":"TEME","OBJECT_TYPE":"PAYLOAD","EPHEMERIS_TYPE":"0","RA_OF_ASC_NODE":"66.6232","MEAN_ANOMALY":"314.2966","OBJECT_NAME":"STARLINK-3614","MEAN_MOTION":"15.08838229","TLE_LINE2":"2 51771  53.2175  66.6232 0001608  52.0985 314.2966 15.08838229 15301","EPOCH":"2022-05-26T22:00:00.999936","DECAY_DATE":null,"REV_AT_EPOCH":"1530","LAUNCH_DATE":"2022-02-25","CLASSIFICATION_TYPE":"U","INCLINATION":"53.2175"},{"DECAY_DATE":null,"EPOCH":"2022-05-26T22:00:00.999936","MEAN_MOTION":"15.08871275","TLE_LINE2":"2 51772  53.2175  66.6234 0001627  49.3183   2.2611 15.08871275 15358","CLASSIFICATION_TYPE":"U","INCLINATION":"53.2175","REV_AT_EPOCH":"1535","LAUNCH_DATE":"2022-02-25","TLE_LINE1":"1 51772U 22017E   22146.91667824 -.00055949  00000-0 -35217-2 0  9996","RCS_SIZE":"LARGE","REF_FRAME":"TEME","ARG_OF_PERICENTER":"49.3183","PERIOD":"95.436","CENTER_NAME":"EARTH","OBJECT_NAME":"STARLINK-3623","EPHEMERIS_TYPE":"0","OBJECT_TYPE":"PAYLOAD","MEAN_ANOMALY":"2.2611","RA_OF_ASC_NODE":"66.6234","GP_ID":"204603078","SEMIMAJOR_AXIS":"6917.785","SITE":"AFWTR","MEAN_MOTION_DOT":"-0.00055949","MEAN_ELEMENT_THEORY":"SGP4","ELEMENT_SET_NO":"999","TIME_SYSTEM":"UTC","OBJECT_ID":"2022-017E","NORAD_CAT_ID":"51772","APOAPSIS":"540.775","ECCENTRICITY":"0.00016270","BSTAR":"-0.00352170000000","MEAN_MOTION_DDOT":"0.0000000000000","FILE":"3466057","COUNTRY_CODE":"US","PERIAPSIS":"538.524"}];
